LOPEN                   
1 60473U 24149F   26137.18509557  .00011003  00000+0  28949-3 0  9998
2 60473  97.3783 220.3336 0001869  61.5662 298.5772 15.38735688 97491
ROCK                    
1 60474U 24149G   26137.17165308  .00011048  00000+0  29063-3 0  9997
2 60474  97.3778 220.3372 0001894  51.3286 308.8128 15.38738844 97490
CONNECTA IOT-3          
1 60475U 24149H   26137.18010310  .00002834  00000+0  12245-3 0  9998
2 60475  97.3738 213.7626 0003646  42.5615 317.5904 15.23291933 97081
QUBE                    
1 60476U 24149J   26137.17861778  .00016769  00000+0  34897-3 0  9999
2 60476  97.3781 223.0513 0001312  31.8547 328.2781 15.45692843 97678
WREN-1                  
1 60478U 24149L   26137.22321509  .00014349  00000+0  35815-3 0  9993
2 60478  97.3770 221.0416 0004202  34.1243 326.0272 15.40278958 97558
TOMORROW-S1             
1 60479U 24149M   26137.18612706  .00005122  00000+0  16698-3 0  9998
2 60479  97.3753 217.7671 0002785  34.9560 325.1864 15.32252746 97341
FLOCK 4BE-18            
1 60480U 24149N   26137.17802455  .00012327  00000+0  30279-3 0  9997
2 60480  97.3734 220.6088 0003436  32.8788 327.2672 15.40804905 97530
FLOCK 4BE-7             
1 60481U 24149P   26137.21661205  .00015199  00000+0  39575-3 0  9997
2 60481  97.3763 220.0541 0002829  43.7895 316.3574 15.38973457 97486
TOMORROW-S2             
1 60485U 24149T   26137.15179514  .00005627  00000+0  18312-3 0  9992
2 60485  97.3822 218.1923 0003594  51.0312 309.1250 15.32266608 97336
FLOCK 4BE-36            
1 60486U 24149U   26137.16722777  .00011883  00000+0  28352-3 0  9995
2 60486  97.3748 221.2488 0003791  44.6132 315.5420 15.41695087 97575
FLOCK 4BE-25            
1 60487U 24149V   26137.19141708  .00010062  00000+0  27152-3 0  9993
2 60487  97.3803 220.1519 0002437  53.7627 306.3843 15.37975908 97471
FLOCK 4BE-31            
1 60488U 24149W   26137.22325028  .00014514  00000+0  33289-3 0  9991
2 60488  97.3805 222.0808 0002914  55.9542 304.1982 15.42836186 97601
FLOCK 4BE-20            
1 60489U 24149X   26137.20426257  .00009010  00000+0  24955-3 0  9991
2 60489  97.3704 219.1231 0003815  42.9213 317.2328 15.37195023 97453
FLOCK 4BE-23            
1 60490U 24149Y   26137.18710536  .00010017  00000+0  28038-3 0  9991
2 60490  97.3785 219.4647 0003831  51.1662 308.9924 15.36835414 97437
FLOCK 4BE-15            
1 60491U 24149Z   26137.16383380  .00092680  00000+0  14778-2 0  9994
2 60491  97.3701 221.5385 0003399 136.4426 223.7095 15.52903583 97606
FLOCK 4BE-17            
1 60492U 24149AA  26137.21240712  .00010776  00000+0  28277-3 0  9998
2 60492  97.3779 220.3602 0003022  43.5741 316.5742 15.38818732 97494
NUSAT-50 (NANCY ROMAN)  
1 60493U 24149AB  26137.15913105  .00007218  00000+0  25675-3 0  9991
2 60493  97.3792 218.6447 0002038 329.3110  30.8011 15.29279360 97389
FLOCK 4BE-22            
1 60494U 24149AC  26137.22133000  .00011218  00000+0  28152-3 0  9996
2 60494  97.3737 220.5131 0003806  46.5168 313.6394 15.40175243 97537
FLOCK 4BE-34            
1 60495U 24149AD  26137.17380436  .00010555  00000+0  26473-3 0  9995
2 60495  97.3784 221.2674 0004210  56.3594 303.8053 15.40208413 97553
TYCHE                   
1 60496U 24149AE  26137.18269395  .00003058  00000+0  12246-3 0  9990
2 60496  97.3757 215.4147 0003291  55.7167 304.4383 15.25801064 97176
FLOCK 4BE-32            
1 60497U 24149AF  26137.22568189  .00013396  00000+0  32637-3 0  9991
2 60497  97.3726 220.8451 0003985  52.1996 307.9611 15.41030417 97561
NUSAT-48 (HENRIETTA LE*)
1 60498U 24149AG  26137.15643433  .00007503  00000+0  26174-3 0  9992
2 60498  97.3910 218.8140 0004566  45.3651 314.7961 15.29894963 97392
FLOCK 4BE-30            
1 60499U 24149AH  26137.19291958  .00062990  00000+0  11475-2 0  9996
2 60499  97.3790 221.8520 0002093 164.3098 195.8218 15.49265540 96965
NUSAT-49 (KLARA DAN VO*)
1 60500U 24149AJ  26137.20066433  .00006547  00000+0  22598-3 0  9994
2 60500  97.3783 218.6996 0003755  63.8695 296.2932 15.30292905 97395
FLOCK 4BE-11            
1 60501U 24149AK  26137.17222125  .00012436  00000+0  29467-3 0  9999
2 60501  97.3704 220.9909 0004040  50.3753 309.7850 15.41889690 97577
YAM-7                   
1 60504U 24149AN  26137.15427166  .00005272  00000+0  17662-3 0  9996
2 60504  97.3788 217.5402 0004597  62.4940 297.6768 15.31355758 97307
FLOCK 4BE-24            
1 60505U 24149AP  26137.22405956  .00013547  00000+0  32126-3 0  9994
2 60505  97.3721 221.2910 0004220  58.2532 301.9126 15.41843237 97597
LUR-1                   
1 60506U 24149AQ  26137.17553815  .00004991  00000+0  17622-3 0  9994
2 60506  97.3744 216.2381 0005439  67.7637 292.4179 15.29667234 97233
TANAGER-1               
1 60507U 24149AR  26137.13189323  .00007720  00000+0  16781-3 0  9998
2 60507  97.3158 231.2927 0005943  60.7408 299.4434 15.44602605 98246
