OBJECT_NAME,OBJECT_ID,EPOCH,MEAN_MOTION,ECCENTRICITY,INCLINATION,RA_OF_ASC_NODE,ARG_OF_PERICENTER,MEAN_ANOMALY,EPHEMERIS_TYPE,CLASSIFICATION_TYPE,NORAD_CAT_ID,ELEMENT_SET_NO,REV_AT_EPOCH,BSTAR,MEAN_MOTION_DOT,MEAN_MOTION_DDOT
LOPEN,2024-149F,2026-05-17T04:26:32.257248,15.38735688,.0001869,97.3783,220.3336,61.5662,298.5772,0,U,60473,999,9749,.28949E-3,.11003E-3,0
ROCK,2024-149G,2026-05-17T04:07:10.826112,15.38738844,.0001894,97.3778,220.3372,51.3286,308.8128,0,U,60474,999,9749,.29063E-3,.11048E-3,0
CONNECTA IOT-3,2024-149H,2026-05-17T04:19:20.907840,15.23291933,.0003646,97.3738,213.7626,42.5615,317.5904,0,U,60475,999,9708,.12245E-3,.2834E-4,0
QUBE,2024-149J,2026-05-17T04:17:12.576192,15.45692843,.0001312,97.3781,223.0513,31.8547,328.2781,0,U,60476,999,9767,.34897E-3,.16769E-3,0
WREN-1,2024-149L,2026-05-17T05:21:25.783776,15.40278958,.0004202,97.3770,221.0416,34.1243,326.0272,0,U,60478,999,9755,.35815E-3,.14349E-3,0
TOMORROW-S1,2024-149M,2026-05-17T04:28:01.377984,15.32252746,.0002785,97.3753,217.7671,34.9560,325.1864,0,U,60479,999,9734,.16698E-3,.5122E-4,0
FLOCK 4BE-18,2024-149N,2026-05-17T04:16:21.321120,15.40804905,.0003436,97.3734,220.6088,32.8788,327.2672,0,U,60480,999,9753,.30279E-3,.12327E-3,0
FLOCK 4BE-7,2024-149P,2026-05-17T05:11:55.281120,15.38973457,.0002829,97.3763,220.0541,43.7895,316.3574,0,U,60481,999,9748,.39575E-3,.15199E-3,0
TOMORROW-S2,2024-149T,2026-05-17T03:38:35.100096,15.32266608,.0003594,97.3822,218.1923,51.0312,309.1250,0,U,60485,999,9733,.18312E-3,.5627E-4,0
FLOCK 4BE-36,2024-149U,2026-05-17T04:00:48.479328,15.41695087,.0003791,97.3748,221.2488,44.6132,315.5420,0,U,60486,999,9757,.28352E-3,.11883E-3,0
FLOCK 4BE-25,2024-149V,2026-05-17T04:35:38.435712,15.37975908,.0002437,97.3803,220.1519,53.7627,306.3843,0,U,60487,999,9747,.27152E-3,.10062E-3,0
FLOCK 4BE-31,2024-149W,2026-05-17T05:21:28.824192,15.42836186,.0002914,97.3805,222.0808,55.9542,304.1982,0,U,60488,999,9760,.33289E-3,.14514E-3,0
FLOCK 4BE-20,2024-149X,2026-05-17T04:54:08.286048,15.37195023,.0003815,97.3704,219.1231,42.9213,317.2328,0,U,60489,999,9745,.24955E-3,.901E-4,0
FLOCK 4BE-23,2024-149Y,2026-05-17T04:29:25.903104,15.36835414,.0003831,97.3785,219.4647,51.1662,308.9924,0,U,60490,999,9743,.28038E-3,.10017E-3,0
FLOCK 4BE-15,2024-149Z,2026-05-17T03:55:55.240320,15.52903583,.0003399,97.3701,221.5385,136.4426,223.7095,0,U,60491,999,9760,.14778E-2,.9268E-3,0
FLOCK 4BE-17,2024-149AA,2026-05-17T05:05:51.975168,15.38818732,.0003022,97.3779,220.3602,43.5741,316.5742,0,U,60492,999,9749,.28277E-3,.10776E-3,0
NUSAT-50 (NANCY ROMAN),2024-149AB,2026-05-17T03:49:08.922720,15.29279360,.0002038,97.3792,218.6447,329.3110,30.8011,0,U,60493,999,9738,.25675E-3,.7218E-4,0
FLOCK 4BE-22,2024-149AC,2026-05-17T05:18:42.912000,15.40175243,.0003806,97.3737,220.5131,46.5168,313.6394,0,U,60494,999,9753,.28152E-3,.11218E-3,0
FLOCK 4BE-34,2024-149AD,2026-05-17T04:10:16.696704,15.40208413,.000421,97.3784,221.2674,56.3594,303.8053,0,U,60495,999,9755,.26473E-3,.10555E-3,0
TYCHE,2024-149AE,2026-05-17T04:23:04.757280,15.25801064,.0003291,97.3757,215.4147,55.7167,304.4383,0,U,60496,999,9717,.12246E-3,.3058E-4,0
FLOCK 4BE-32,2024-149AF,2026-05-17T05:24:58.915296,15.41030417,.0003985,97.3726,220.8451,52.1996,307.9611,0,U,60497,999,9756,.32637E-3,.13396E-3,0
NUSAT-48 (HENRIETTA LEAVITT),2024-149AG,2026-05-17T03:45:15.926112,15.29894963,.0004566,97.3910,218.8140,45.3651,314.7961,0,U,60498,999,9739,.26174E-3,.7503E-4,0
FLOCK 4BE-30,2024-149AH,2026-05-17T04:37:48.251712,15.49265540,.0002093,97.3790,221.8520,164.3098,195.8218,0,U,60499,999,9696,.11475E-2,.6299E-3,0
NUSAT-49 (KLARA DAN VON NEUMANN),2024-149AJ,2026-05-17T04:48:57.398112,15.30292905,.0003755,97.3783,218.6996,63.8695,296.2932,0,U,60500,999,9739,.22598E-3,.6547E-4,0
FLOCK 4BE-11,2024-149AK,2026-05-17T04:07:59.916000,15.41889690,.000404,97.3704,220.9909,50.3753,309.7850,0,U,60501,999,9757,.29467E-3,.12436E-3,0
YAM-7,2024-149AN,2026-05-17T03:42:09.071424,15.31355758,.0004597,97.3788,217.5402,62.4940,297.6768,0,U,60504,999,9730,.17662E-3,.5272E-4,0
FLOCK 4BE-24,2024-149AP,2026-05-17T05:22:38.745984,15.41843237,.000422,97.3721,221.2910,58.2532,301.9126,0,U,60505,999,9759,.32126E-3,.13547E-3,0
LUR-1,2024-149AQ,2026-05-17T04:12:46.496160,15.29667234,.0005439,97.3744,216.2381,67.7637,292.4179,0,U,60506,999,9723,.17622E-3,.4991E-4,0
TANAGER-1,2024-149AR,2026-05-17T03:09:55.575072,15.44602605,.0005943,97.3158,231.2927,60.7408,299.4434,0,U,60507,999,9824,.16781E-3,.772E-4,0
